[
  {
    "CCSDS_OMM_VERS": "2.0",
    "COMMENT": "GENERATED VIA SPACE-TRACK.ORG API",
    "CREATION_DATE": "2021-12-03T17:32:05",
    "ORIGINATOR": "18 SPCS",
    "OBJECT_NAME": "TELSTAR 2 (A-41)",
    "OBJECT_ID": "1963-013A",
    "CENTER_NAME": "EARTH",
    "REF_FRAME": "TEME",
    "TIME_SYSTEM": "UTC",
    "MEAN_ELEMENT_THEORY": "SGP4",
    "EPOCH": "2021-12-03T05:27:33.084000",
    "MEAN_MOTION": "6.39260817",
    "ECCENTRICITY": "0.40113120",
    "INCLINATION": "42.7775",
    "RA_OF_ASC_NODE": "293.1244",
    "ARG_OF_PERICENTER": "293.5720",
    "MEAN_ANOMALY": "39.2048",
    "EPHEMERIS_TYPE": "0",
    "CLASSIFICATION_TYPE": "U",
    "NORAD_CAT_ID": "573",
    "ELEMENT_SET_NO": "999",
    "REV_AT_EPOCH": "48017",
    "BSTAR": "-0.00052926000000",
    "MEAN_MOTION_DOT": "-0.00000063",
    "MEAN_MOTION_DDOT": "0.0000000000000",
    "SEMIMAJOR_AXIS": "12263.557",
    "PERIOD": "225.260",
    "APOAPSIS": "10804.717",
    "PERIAPSIS": "966.127",
    "OBJECT_TYPE": "PAYLOAD",
    "RCS_SIZE": "MEDIUM",
    "COUNTRY_CODE": "US",
    "LAUNCH_DATE": "1963-05-07",
    "SITE": "AFETR",
    "DECAY_DATE": null,
    "FILE": "3231740",
    "GP_ID": "190990104",
    "TLE_LINE0": "0 TELSTAR 2 (A-41)",
    "TLE_LINE1": "1 00573U 63013A   21337.22746625 -.00000063  00000-0 -52926-3 0  9996",
    "TLE_LINE2": "2 00573  42.7775 293.1244 4011312 293.5720  39.2048  6.39260817480172"
  },
  {
    "CCSDS_OMM_VERS": "2.0",
    "COMMENT": "GENERATED VIA SPACE-TRACK.ORG API",
    "CREATION_DATE": "2021-12-04T02:39:20",
    "ORIGINATOR": "18 SPCS",
    "OBJECT_NAME": "MIDAS 6 (FTV 1169)",
    "OBJECT_ID": "1963-014A",
    "CENTER_NAME": "EARTH",
    "REF_FRAME": "TEME",
    "TIME_SYSTEM": "UTC",
    "MEAN_ELEMENT_THEORY": "SGP4",
    "EPOCH": "2021-12-03T12:50:54.854304",
    "MEAN_MOTION": "8.65273113",
    "ECCENTRICITY": "0.00351080",
    "INCLINATION": "87.3462",
    "RA_OF_ASC_NODE": "353.8990",
    "ARG_OF_PERICENTER": "342.3553",
    "MEAN_ANOMALY": "17.6081",
    "EPHEMERIS_TYPE": "0",
    "CLASSIFICATION_TYPE": "U",
    "NORAD_CAT_ID": "574",
    "ELEMENT_SET_NO": "999",
    "REV_AT_EPOCH": "7448",
    "BSTAR": "0.00839900000000",
    "MEAN_MOTION_DOT": "0.00000021",
    "MEAN_MOTION_DDOT": "0.0000000000000",
    "SEMIMAJOR_AXIS": "10022.276",
    "PERIOD": "166.421",
    "APOAPSIS": "3679.327",
    "PERIAPSIS": "3608.955",
    "OBJECT_TYPE": "PAYLOAD",
    "RCS_SIZE": "LARGE",
    "COUNTRY_CODE": "US",
    "LAUNCH_DATE": "1963-05-09",
    "SITE": "AFWTR",
    "DECAY_DATE": null,
    "FILE": "3231910",
    "GP_ID": "191018292",
    "TLE_LINE0": "0 MIDAS 6 (FTV 1169)",
    "TLE_LINE1": "1 00574U 63014A   21337.53535711  .00000021  00000-0  83990-2 0  9990",
    "TLE_LINE2": "2 00574  87.3462 353.8990 0035108 342.3553  17.6081  8.65273113 74489"
  },
  {
    "CCSDS_OMM_VERS": "2.0",
    "COMMENT": "GENERATED VIA SPACE-TRACK.ORG API",
    "CREATION_DATE": "2021-12-03T17:32:05",
    "ORIGINATOR": "18 SPCS",
    "OBJECT_NAME": "DELTA 1 R\/B",
    "OBJECT_ID": "1963-013B",
    "CENTER_NAME": "EARTH",
    "REF_FRAME": "TEME",
    "TIME_SYSTEM": "UTC",
    "MEAN_ELEMENT_THEORY": "SGP4",
    "EPOCH": "2021-12-03T00:06:06.509664",
    "MEAN_MOTION": "6.40246647",
    "ECCENTRICITY": "0.40078470",
    "INCLINATION": "42.7542",
    "RA_OF_ASC_NODE": "239.4536",
    "ARG_OF_PERICENTER": "352.0672",
    "MEAN_ANOMALY": "9.4653",
    "EPHEMERIS_TYPE": "0",
    "CLASSIFICATION_TYPE": "U",
    "NORAD_CAT_ID": "575",
    "ELEMENT_SET_NO": "999",
    "REV_AT_EPOCH": "36983",
    "BSTAR": "0.00044860000000",
    "MEAN_MOTION_DOT": "0.00000016",
    "MEAN_MOTION_DDOT": "0.0000000000000",
    "SEMIMAJOR_AXIS": "12250.965",
    "PERIOD": "224.913",
    "APOAPSIS": "10782.829",
    "PERIAPSIS": "962.831",
    "OBJECT_TYPE": "ROCKET BODY",
    "RCS_SIZE": "MEDIUM",
    "COUNTRY_CODE": "US",
    "LAUNCH_DATE": "1963-05-07",
    "SITE": "AFETR",
    "DECAY_DATE": null,
    "FILE": "3231740",
    "GP_ID": "190990606",
    "TLE_LINE0": "0 DELTA 1 R\/B",
    "TLE_LINE1": "1 00575U 63013B   21337.00424201  .00000016  00000-0  44860-3 0  9991",
    "TLE_LINE2": "2 00575  42.7542 239.4536 4007847 352.0672   9.4653  6.40246647369835"
  },
  {
    "CCSDS_OMM_VERS": "2.0",
    "COMMENT": "GENERATED VIA SPACE-TRACK.ORG API",
    "CREATION_DATE": "2021-12-03T17:32:05",
    "ORIGINATOR": "18 SPCS",
    "OBJECT_NAME": "DASH 1",
    "OBJECT_ID": "1963-014D",
    "CENTER_NAME": "EARTH",
    "REF_FRAME": "TEME",
    "TIME_SYSTEM": "UTC",
    "MEAN_ELEMENT_THEORY": "SGP4",
    "EPOCH": "2021-12-03T11:12:35.648928",
    "MEAN_MOTION": "8.65651614",
    "ECCENTRICITY": "0.01895660",
    "INCLINATION": "87.3356",
    "RA_OF_ASC_NODE": "349.2415",
    "ARG_OF_PERICENTER": "266.9516",
    "MEAN_ANOMALY": "90.9633",
    "EPHEMERIS_TYPE": "0",
    "CLASSIFICATION_TYPE": "U",
    "NORAD_CAT_ID": "589",
    "ELEMENT_SET_NO": "999",
    "REV_AT_EPOCH": "85045",
    "BSTAR": "0.01887700000000",
    "MEAN_MOTION_DOT": "0.00000043",
    "MEAN_MOTION_DDOT": "0.0000000000000",
    "SEMIMAJOR_AXIS": "10019.355",
    "PERIOD": "166.349",
    "APOAPSIS": "3831.152",
    "PERIAPSIS": "3451.287",
    "OBJECT_TYPE": "PAYLOAD",
    "RCS_SIZE": "LARGE",
    "COUNTRY_CODE": "US",
    "LAUNCH_DATE": "1963-05-09",
    "SITE": "AFWTR",
    "DECAY_DATE": null,
    "FILE": "3231740",
    "GP_ID": "190991356",
    "TLE_LINE0": "0 DASH 1",
    "TLE_LINE1": "1 00589U 63014D   21337.46707927  .00000043  00000-0  18877-1 0  9993",
    "TLE_LINE2": "2 00589  87.3356 349.2415 0189566 266.9516  90.9633  8.65651614850458"
  },
  {
    "CCSDS_OMM_VERS": "2.0",
    "COMMENT": "GENERATED VIA SPACE-TRACK.ORG API",
    "CREATION_DATE": "2021-12-03T17:32:05",
    "ORIGINATOR": "18 SPCS",
    "OBJECT_NAME": "WESTFORD NEEDLES",
    "OBJECT_ID": "1963-014E",
    "CENTER_NAME": "EARTH",
    "REF_FRAME": "TEME",
    "TIME_SYSTEM": "UTC",
    "MEAN_ELEMENT_THEORY": "SGP4",
    "EPOCH": "2021-12-03T09:40:02.958528",
    "MEAN_MOTION": "8.67231230",
    "ECCENTRICITY": "0.00635270",
    "INCLINATION": "87.3487",
    "RA_OF_ASC_NODE": "348.2206",
    "ARG_OF_PERICENTER": "289.6715",
    "MEAN_ANOMALY": "69.7294",
    "EPHEMERIS_TYPE": "0",
    "CLASSIFICATION_TYPE": "U",
    "NORAD_CAT_ID": "602",
    "ELEMENT_SET_NO": "999",
    "REV_AT_EPOCH": "85420",
    "BSTAR": "0.00514060000000",
    "MEAN_MOTION_DOT": "0.00000014",
    "MEAN_MOTION_DDOT": "0.0000000000000",
    "SEMIMAJOR_AXIS": "10007.184",
    "PERIOD": "166.046",
    "APOAPSIS": "3692.622",
    "PERIAPSIS": "3565.477",
    "OBJECT_TYPE": "DEBRIS",
    "RCS_SIZE": "MEDIUM",
    "COUNTRY_CODE": "US",
    "LAUNCH_DATE": "1963-05-09",
    "SITE": "AFWTR",
    "DECAY_DATE": null,
    "FILE": "3231740",
    "GP_ID": "190989605",
    "TLE_LINE0": "0 WESTFORD NEEDLES",
    "TLE_LINE1": "1 00602U 63014E   21337.40281202  .00000014  00000-0  51406-2 0  9990",
    "TLE_LINE2": "2 00602  87.3487 348.2206 0063527 289.6715  69.7294  8.67231230854201"
  },
  {
    "CCSDS_OMM_VERS": "2.0",
    "COMMENT": "GENERATED VIA SPACE-TRACK.ORG API",
    "CREATION_DATE": "2021-12-03T22:16:10",
    "ORIGINATOR": "18 SPCS",
    "OBJECT_NAME": "ERS 6",
    "OBJECT_ID": "1963-014C",
    "CENTER_NAME": "EARTH",
    "REF_FRAME": "TEME",
    "TIME_SYSTEM": "UTC",
    "MEAN_ELEMENT_THEORY": "SGP4",
    "EPOCH": "2021-12-03T11:30:40.129632",
    "MEAN_MOTION": "8.65297174",
    "ECCENTRICITY": "0.01032710",
    "INCLINATION": "87.3409",
    "RA_OF_ASC_NODE": "351.6874",
    "ARG_OF_PERICENTER": "275.8537",
    "MEAN_ANOMALY": "83.0553",
    "EPHEMERIS_TYPE": "0",
    "CLASSIFICATION_TYPE": "U",
    "NORAD_CAT_ID": "608",
    "ELEMENT_SET_NO": "999",
    "REV_AT_EPOCH": "85047",
    "BSTAR": "0.01330600000000",
    "MEAN_MOTION_DOT": "0.00000031",
    "MEAN_MOTION_DDOT": "0.0000000000000",
    "SEMIMAJOR_AXIS": "10022.090",
    "PERIOD": "166.417",
    "APOAPSIS": "3747.455",
    "PERIAPSIS": "3540.456",
    "OBJECT_TYPE": "PAYLOAD",
    "RCS_SIZE": "MEDIUM",
    "COUNTRY_CODE": "US",
    "LAUNCH_DATE": "1963-05-09",
    "SITE": "AFWTR",
    "DECAY_DATE": null,
    "FILE": "3231762",
    "GP_ID": "191013724",
    "TLE_LINE0": "0 ERS 6",
    "TLE_LINE1": "1   608U 63014C   21337.47963113  .00000031  00000-0  13306-1 0  9996",
    "TLE_LINE2": "2   608  87.3409 351.6874 0103271 275.8537  83.0553  8.65297174850479"
  },
  {
    "CCSDS_OMM_VERS": "2.0",
    "COMMENT": "GENERATED VIA SPACE-TRACK.ORG API",
    "CREATION_DATE": "2021-12-04T02:39:20",
    "ORIGINATOR": "18 SPCS",
    "OBJECT_NAME": "HITCH HIKER 1",
    "OBJECT_ID": "1963-025B",
    "CENTER_NAME": "EARTH",
    "REF_FRAME": "TEME",
    "TIME_SYSTEM": "UTC",
    "MEAN_ELEMENT_THEORY": "SGP4",
    "EPOCH": "2021-12-03T20:32:31.437024",
    "MEAN_MOTION": "14.69983070",
    "ECCENTRICITY": "0.05123350",
    "INCLINATION": "81.9780",
    "RA_OF_ASC_NODE": "308.7875",
    "ARG_OF_PERICENTER": "346.7426",
    "MEAN_ANOMALY": "12.0715",
    "EPHEMERIS_TYPE": "0",
    "CLASSIFICATION_TYPE": "U",
    "NORAD_CAT_ID": "614",
    "ELEMENT_SET_NO": "999",
    "REV_AT_EPOCH": "67547",
    "BSTAR": "0.00043683000000",
    "MEAN_MOTION_DOT": "0.00024170",
    "MEAN_MOTION_DDOT": "-0.0000006443300",
    "SEMIMAJOR_AXIS": "7039.259",
    "PERIOD": "97.960",
    "APOAPSIS": "1021.770",
    "PERIAPSIS": "300.478",
    "OBJECT_TYPE": "PAYLOAD",
    "RCS_SIZE": "MEDIUM",
    "COUNTRY_CODE": "US",
    "LAUNCH_DATE": "1963-06-27",
    "SITE": "AFWTR",
    "DECAY_DATE": null,
    "FILE": "3231910",
    "GP_ID": "191018543",
    "TLE_LINE0": "0 HITCH HIKER 1",
    "TLE_LINE1": "1 00614U 63025B   21337.85591941  .00024170 -64433-6  43683-3 0  9993",
    "TLE_LINE2": "2 00614  81.9780 308.7875 0512335 346.7426  12.0715 14.69983070675477"
  }
]
